start=new Date('2021-10-09T00:00:00.000Z').valueOf();
sats=[{"SEMIMAJOR_AXIS":"6925.373","MEAN_ELEMENT_THEORY":"SGP4","FILE":"3152020","TLE_LINE2":"2 46049  53.0542 156.7088 0001666  75.2037 284.9136 15.06392074 65957","SITE":"AFETR","RCS_SIZE":"LARGE","PERIAPSIS":"546.084","TLE_LINE1":"1 46049U 20055Y   21281.90286505 -.00001754  00000-0 -98890-4 0  9991","COUNTRY_CODE":"US","RA_OF_ASC_NODE":"156.7088","MEAN_MOTION":"15.06392074","OBJECT_TYPE":"PAYLOAD","INCLINATION":"53.0542","GP_ID":"186593299","EPOCH":"2021-10-08T21:40:07.540320","DECAY_DATE":null,"MEAN_MOTION_DDOT":"0.0000000000000","REV_AT_EPOCH":"6595","LAUNCH_DATE":"2020-08-07","OBJECT_NAME":"STARLINK-1530","APOAPSIS":"548.392","NORAD_CAT_ID":"46049","REF_FRAME":"TEME","MEAN_MOTION_DOT":"-0.00001754","ARG_OF_PERICENTER":"75.2037","PERIOD":"95.593","CLASSIFICATION_TYPE":"U","BSTAR":"-0.00009889000000","ECCENTRICITY":"0.00016660","OBJECT_ID":"2020-055Y","ELEMENT_SET_NO":"999","TIME_SYSTEM":"UTC","MEAN_ANOMALY":"284.9136","EPHEMERIS_TYPE":"0","CENTER_NAME":"EARTH"},{"SEMIMAJOR_AXIS":"6817.925","MEAN_ELEMENT_THEORY":"SGP4","FILE":"3152020","TLE_LINE2":"2 46050  53.0537 150.9451 0001177  92.7813 267.3326 15.42142195 66039","SITE":"AFETR","TLE_LINE1":"1 46050U 20055Z   21281.93472113 -.00005450  00000-0 -11593-3 0  9999","PERIAPSIS":"438.988","RCS_SIZE":"LARGE","COUNTRY_CODE":"US","RA_OF_ASC_NODE":"150.9451","MEAN_MOTION":"15.42142195","OBJECT_TYPE":"PAYLOAD","GP_ID":"186593549","INCLINATION":"53.0537","DECAY_DATE":null,"EPOCH":"2021-10-08T22:25:59.905632","REV_AT_EPOCH":"6603","MEAN_MOTION_DDOT":"0.0000000000000","LAUNCH_DATE":"2020-08-07","APOAPSIS":"440.593","OBJECT_NAME":"STARLINK-1535","REF_FRAME":"TEME","NORAD_CAT_ID":"46050","MEAN_MOTION_DOT":"-0.00005450","ARG_OF_PERICENTER":"92.7813","PERIOD":"93.377","CLASSIFICATION_TYPE":"U","ECCENTRICITY":"0.00011770","BSTAR":"-0.00011593000000","OBJECT_ID":"2020-055Z","TIME_SYSTEM":"UTC","ELEMENT_SET_NO":"999","MEAN_ANOMALY":"267.3326","CENTER_NAME":"EARTH","EPHEMERIS_TYPE":"0"},{"FILE":"3152020","MEAN_ELEMENT_THEORY":"SGP4","SEMIMAJOR_AXIS":"6925.356","TLE_LINE1":"1 46051U 20055AA  21281.93972941 -.00000175  00000-0  71857-5 0  9993","RCS_SIZE":"LARGE","PERIAPSIS":"546.019","SITE":"AFETR","TLE_LINE2":"2 46051  53.0548 156.5453 0001735  75.4165 284.7016 15.06397711 65960","OBJECT_TYPE":"PAYLOAD","RA_OF_ASC_NODE":"156.5453","MEAN_MOTION":"15.06397711","COUNTRY_CODE":"US","LAUNCH_DATE":"2020-08-07","REV_AT_EPOCH":"6596","MEAN_MOTION_DDOT":"0.0000000000000","DECAY_DATE":null,"EPOCH":"2021-10-08T22:33:12.621024","GP_ID":"186594801","INCLINATION":"53.0548","PERIOD":"95.592","ARG_OF_PERICENTER":"75.4165","MEAN_MOTION_DOT":"-0.00000175","REF_FRAME":"TEME","NORAD_CAT_ID":"46051","APOAPSIS":"548.422","OBJECT_NAME":"STARLINK-1540","OBJECT_ID":"2020-055AA","ECCENTRICITY":"0.00017350","BSTAR":"0.00000718570000","CLASSIFICATION_TYPE":"U","MEAN_ANOMALY":"284.7016","TIME_SYSTEM":"UTC","ELEMENT_SET_NO":"999","CENTER_NAME":"EARTH","EPHEMERIS_TYPE":"0"},{"MEAN_MOTION_DOT":"-0.00002167","ARG_OF_PERICENTER":"79.8780","PERIOD":"95.592","APOAPSIS":"548.264","OBJECT_NAME":"STARLINK-1541","NORAD_CAT_ID":"46052","REF_FRAME":"TEME","ECCENTRICITY":"0.00015260","BSTAR":"-0.00012658000000","OBJECT_ID":"2020-055AB","CLASSIFICATION_TYPE":"U","MEAN_ANOMALY":"280.2381","TIME_SYSTEM":"UTC","ELEMENT_SET_NO":"999","CENTER_NAME":"EARTH","EPHEMERIS_TYPE":"0","FILE":"3152020","MEAN_ELEMENT_THEORY":"SGP4","SEMIMAJOR_AXIS":"6925.342","TLE_LINE2":"2 46052  53.0531 156.6088 0001526  79.8780 280.2381 15.06402055 65927","SITE":"AFETR","TLE_LINE1":"1 46052U 20055AB  21281.92497483 -.00002167  00000-0 -12658-3 0  9992","PERIAPSIS":"546.150","RCS_SIZE":"LARGE","OBJECT_TYPE":"PAYLOAD","COUNTRY_CODE":"US","RA_OF_ASC_NODE":"156.6088","MEAN_MOTION":"15.06402055","REV_AT_EPOCH":"6592","MEAN_MOTION_DDOT":"0.0000000000000","LAUNCH_DATE":"2020-08-07","GP_ID":"186595048","INCLINATION":"53.0531","DECAY_DATE":null,"EPOCH":"2021-10-08T22:11:57.825312"},{"MEAN_MOTION_DOT":"-0.00000751","ARG_OF_PERICENTER":"81.2392","PERIOD":"95.592","OBJECT_NAME":"STARLINK-1543","APOAPSIS":"548.247","NORAD_CAT_ID":"46053","REF_FRAME":"TEME","BSTAR":"-0.00003154700000","ECCENTRICITY":"0.00014790","OBJECT_ID":"2020-055AC","CLASSIFICATION_TYPE":"U","MEAN_ANOMALY":"278.8765","ELEMENT_SET_NO":"999","TIME_SYSTEM":"UTC","EPHEMERIS_TYPE":"0","CENTER_NAME":"EARTH","MEAN_ELEMENT_THEORY":"SGP4","FILE":"3152020","SEMIMAJOR_AXIS":"6925.358","SITE":"AFETR","TLE_LINE2":"2 46053  53.0532 156.5922 0001479  81.2392 278.8765 15.06396911 65953","PERIAPSIS":"546.199","RCS_SIZE":"LARGE","TLE_LINE1":"1 46053U 20055AC  21281.92865919 -.00000751  00000-0 -31547-4 0  9992","OBJECT_TYPE":"PAYLOAD","COUNTRY_CODE":"US","RA_OF_ASC_NODE":"156.5922","MEAN_MOTION":"15.06396911","MEAN_MOTION_DDOT":"0.0000000000000","REV_AT_EPOCH":"6595","LAUNCH_DATE":"2020-08-07","INCLINATION":"53.0532","GP_ID":"186593800","EPOCH":"2021-10-08T22:17:16.154016","DECAY_DATE":null},{"OBJECT_TYPE":"PAYLOAD","RA_OF_ASC_NODE":"156.5432","MEAN_MOTION":"15.06395722","COUNTRY_CODE":"US","LAUNCH_DATE":"2020-08-07","MEAN_MOTION_DDOT":"0.0000000000000","REV_AT_EPOCH":"6595","EPOCH":"2021-10-08T22:27:52.858944","DECAY_DATE":null,"INCLINATION":"53.0547","GP_ID":"186594050","FILE":"3152020","MEAN_ELEMENT_THEORY":"SGP4","SEMIMAJOR_AXIS":"6925.362","RCS_SIZE":"LARGE","PERIAPSIS":"546.159","TLE_LINE1":"1 46054U 20055AD  21281.93602846 -.00001843  00000-0 -10488-3 0  9995","TLE_LINE2":"2 46054  53.0547 156.5432 0001541  71.5905 288.5251 15.06395722 65955","SITE":"AFETR","MEAN_ANOMALY":"288.5251","ELEMENT_SET_NO":"999","TIME_SYSTEM":"UTC","EPHEMERIS_TYPE":"0","CENTER_NAME":"EARTH","PERIOD":"95.592","ARG_OF_PERICENTER":"71.5905","MEAN_MOTION_DOT":"-0.00001843","REF_FRAME":"TEME","NORAD_CAT_ID":"46054","OBJECT_NAME":"STARLINK-1548","APOAPSIS":"548.294","OBJECT_ID":"2020-055AD","BSTAR":"-0.00010488000000","ECCENTRICITY":"0.00015410","CLASSIFICATION_TYPE":"U"},{"OBJECT_ID":"2020-055AE","ECCENTRICITY":"0.00018430","BSTAR":"0.00001822900000","CLASSIFICATION_TYPE":"U","ARG_OF_PERICENTER":"78.6566","PERIOD":"95.592","MEAN_MOTION_DOT":"-0.00000010","NORAD_CAT_ID":"46055","REF_FRAME":"TEME","APOAPSIS":"548.478","OBJECT_NAME":"STARLINK-1554","CENTER_NAME":"EARTH","EPHEMERIS_TYPE":"0","MEAN_ANOMALY":"281.4630","TIME_SYSTEM":"UTC","ELEMENT_SET_NO":"999","TLE_LINE1":"1 46055U 20055AE  21281.92128625 -.00000010  00000-0  18229-4 0  9999","RCS_SIZE":"LARGE","PERIAPSIS":"545.925","SITE":"AFETR","TLE_LINE2":"2 46055  53.0544 156.6228 0001843  78.6566 281.4630 15.06403919 65954","FILE":"3152020","MEAN_ELEMENT_THEORY":"SGP4","SEMIMAJOR_AXIS":"6925.337","LAUNCH_DATE":"2020-08-07","REV_AT_EPOCH":"6595","MEAN_MOTION_DDOT":"0.0000000000000","DECAY_DATE":null,"EPOCH":"2021-10-08T22:06:39.132000","GP_ID":"186594301","INCLINATION":"53.0544","OBJECT_TYPE":"PAYLOAD","RA_OF_ASC_NODE":"156.6228","MEAN_MOTION":"15.06403919","COUNTRY_CODE":"US"},{"MEAN_ANOMALY":"282.5871","TIME_SYSTEM":"UTC","ELEMENT_SET_NO":"999","CENTER_NAME":"EARTH","EPHEMERIS_TYPE":"0","ARG_OF_PERICENTER":"77.5311","PERIOD":"95.592","MEAN_MOTION_DOT":"-0.00000814","REF_FRAME":"TEME","NORAD_CAT_ID":"46056","APOAPSIS":"548.417","OBJECT_NAME":"STARLINK-1561","OBJECT_ID":"2020-055AF","ECCENTRICITY":"0.00017340","BSTAR":"-0.00003571600000","CLASSIFICATION_TYPE":"U","OBJECT_TYPE":"PAYLOAD","RA_OF_ASC_NODE":"156.5173","MEAN_MOTION":"15.06399096","COUNTRY_CODE":"US","LAUNCH_DATE":"2020-08-07","REV_AT_EPOCH":"6596","MEAN_MOTION_DDOT":"0.0000000000000","DECAY_DATE":null,"EPOCH":"2021-10-08T22:38:30.014016","GP_ID":"186594548","INCLINATION":"53.0528","MEAN_ELEMENT_THEORY":"SGP4","FILE":"3152020","SEMIMAJOR_AXIS":"6925.351","TLE_LINE1":"1 46056U 20055AF  21281.94340294 -.00000814  00000-0 -35716-4 0  9993","RCS_SIZE":"LARGE","PERIAPSIS":"546.015","TLE_LINE2":"2 46056  53.0528 156.5173 0001734  77.5311 282.5871 15.06399096 65960","SITE":"AFETR"},{"DECAY_DATE":null,"EPOCH":"2021-10-08T21:18:53.086752","GP_ID":"186593300","INCLINATION":"53.0544","LAUNCH_DATE":"2020-08-07","REV_AT_EPOCH":"6594","MEAN_MOTION_DDOT":"0.0000000000000","RA_OF_ASC_NODE":"156.7597","MEAN_MOTION":"15.06385267","COUNTRY_CODE":"US","OBJECT_TYPE":"PAYLOAD","TLE_LINE1":"1 46058U 20055AH  21281.88811443 -.00000863  00000-0 -39055-4 0  9991","RCS_SIZE":"LARGE","PERIAPSIS":"546.162","SITE":"AFETR","TLE_LINE2":"2 46058  53.0544 156.7597 0001583  71.3180 288.7981 15.06385267 65943","SEMIMAJOR_AXIS":"6925.394","FILE":"3152020","MEAN_ELEMENT_THEORY":"SGP4","CENTER_NAME":"EARTH","EPHEMERIS_TYPE":"0","TIME_SYSTEM":"UTC","ELEMENT_SET_NO":"999","MEAN_ANOMALY":"288.7981","CLASSIFICATION_TYPE":"U","OBJECT_ID":"2020-055AH","ECCENTRICITY":"0.00015830","BSTAR":"-0.00003905500000","NORAD_CAT_ID":"46058","REF_FRAME":"TEME","APOAPSIS":"548.355","OBJECT_NAME":"STARLINK-1564","ARG_OF_PERICENTER":"71.3180","PERIOD":"95.593","MEAN_MOTION_DOT":"-0.00000863"},{"MEAN_ANOMALY":"272.3060","ELEMENT_SET_NO":"999","TIME_SYSTEM":"UTC","EPHEMERIS_TYPE":"0","CENTER_NAME":"EARTH","PERIOD":"95.593","ARG_OF_PERICENTER":"87.8127","MEAN_MOTION_DOT":"0.00000037","REF_FRAME":"TEME","NORAD_CAT_ID":"46059","OBJECT_NAME":"STARLINK-1570","APOAPSIS":"548.442","OBJECT_ID":"2020-055AJ","BSTAR":"0.00002141600000","ECCENTRICITY":"0.00017320","CLASSIFICATION_TYPE":"U","OBJECT_TYPE":"PAYLOAD","RA_OF_ASC_NODE":"156.7418","MEAN_MOTION":"15.06390528","COUNTRY_CODE":"US","LAUNCH_DATE":"2020-08-07","MEAN_MOTION_DDOT":"0.0000000000000","REV_AT_EPOCH":"6590","EPOCH":"2021-10-08T21:29:30.399936","DECAY_DATE":null,"INCLINATION":"53.0534","GP_ID":"186593550","FILE":"3152020","MEAN_ELEMENT_THEORY":"SGP4","SEMIMAJOR_AXIS":"6925.378","PERIAPSIS":"546.043","RCS_SIZE":"LARGE","TLE_LINE1":"1 46059U 20055AJ  21281.89549074  .00000037  00000-0  21416-4 0  9994","SITE":"AFETR","TLE_LINE2":"2 46059  53.0534 156.7418 0001732  87.8127 272.3060 15.06390528 65903"}];
